NORAD_CAT_ID,OBJECT_NAME,OBJECT_TYPE,EPOCH,MEAN_MOTION,ECCENTRICITY,INCLINATION,RA_OF_ASC_NODE,ARG_OF_PERICENTER,MEAN_ANOMALY,BSTAR,MEAN_MOTION_DOT,MEAN_MOTION_DDOT,TLE_LINE0,TLE_LINE1,TLE_LINE2,SEMIMAJOR_AXIS,PERIOD,APOGEE,PERIGEE,DECAYED
56449.0,STARLINK-5993,PAYLOAD,2024-06-19 00:39:21,14.98326674,0.0003161,70.0003,289.7335,265.7705,94.3093,0.00018979,2.172e-05,0.0,0 STARLINK-5993,1 56449U 23064B   24171.02733595  .00002172  00000-0  18979-3 0  9991,2 56449  70.0003 289.7335 0003161 265.7705  94.3093 14.98326674 61432,6950.203,96.107,574.265,569.871,0.0
56449.0,STARLINK-5993,PAYLOAD,2024-06-19 13:28:26,14.98330097,0.0003134,70.0017,288.3866,267.2138,92.8662,0.00022561,2.6e-05,0.0,0 STARLINK-5993,1 56449U 23064B   24171.56141710  .00002600  00000-0  22561-3 0  9990,2 56449  70.0017 288.3866 0003134 267.2138  92.8662 14.98330097 61156,6950.193,96.107,574.236,569.879,0.0
56449.0,STARLINK-5993,PAYLOAD,2024-06-19 18:16:50,14.98334324,0.0003114,70.0018,287.8819,266.3173,93.763,0.00028205,3.274e-05,0.0,0 STARLINK-5993,1 56449U 23064B   24171.76169529  .00003274  00000-0  28205-3 0  9999,2 56449  70.0018 287.8819 0003114 266.3173  93.7630 14.98334324 61181,6950.18,96.107,574.209,569.88,0.0
56449.0,STARLINK-5993,PAYLOAD,2024-06-20 13:30:27,14.98332326,0.0003015,70.0007,285.8625,267.1769,92.9045,4.5756e-05,4.53e-06,0.0,0 STARLINK-5993,1 56449U 23064B   24172.56281760  .00000453  00000-0  45756-4 0  9997,2 56449  70.0007 285.8625 0003015 267.1769  92.9045 14.98332326 61307,6950.186,96.107,574.146,569.955,0.0
56449.0,STARLINK-5993,PAYLOAD,2024-06-20 16:42:43,14.98333276,0.0003008,70.0007,285.5259,267.3954,92.6861,4.6238e-05,4.59e-06,0.0,0 STARLINK-5993,1 56449U 23064B   24172.69633632  .00000459  00000-0  46238-4 0  9992,2 56449  70.0007 285.5259 0003008 267.3954  92.6861 14.98333276 61686,6950.183,96.107,574.138,569.957,0.0
56449.0,STARLINK-5993,PAYLOAD,2024-06-21 13:32:28,14.98331252,0.0003012,70.0007,283.3378,267.0824,92.9991,5.3794e-05,5.49e-06,0.0,0 STARLINK-5993,1 56449U 23064B   24173.56421668  .00000549  00000-0  53794-4 0  9998,2 56449  70.0007 283.3378 0003012 267.0824  92.9991 14.98331252 61456,6950.189,96.107,574.147,569.961,0.0
56449.0,STARLINK-5993,PAYLOAD,2024-06-21 16:44:44,14.98332312,0.0003038,70.0006,283.0008,268.206,91.8751,5.7254e-05,5.9e-06,0.0,0 STARLINK-5993,1 56449U 23064B   24173.69773569  .00000590  00000-0  57254-4 0  9993,2 56449  70.0006 283.0008 0003038 268.2060  91.8751 14.98332312 61837,6950.186,96.107,574.162,569.939,0.0
56449.0,STARLINK-5993,PAYLOAD,2024-06-22 13:34:29,14.98328133,0.0003105,70.0005,280.8125,268.2397,91.8406,3.7668e-05,3.56e-06,0.0,0 STARLINK-5993,1 56449U 23064B   24174.56561899  .00000356  00000-0  37668-4 0  9998,2 56449  70.0005 280.8125 0003105 268.2397  91.8406 14.98328133 61607,6950.199,96.107,574.222,569.906,0.0
56449.0,STARLINK-5993,PAYLOAD,2024-06-22 16:46:45,14.98328604,0.0003118,70.0004,280.4757,268.6866,91.3936,3.8327e-05,3.64e-06,0.0,0 STARLINK-5993,1 56449U 23064B   24174.69913877  .00000364  00000-0  38327-4 0  9991,2 56449  70.0004 280.4757 0003118 268.6866  91.3936 14.98328604 61989,6950.197,96.107,574.229,569.895,0.0
56449.0,STARLINK-5993,PAYLOAD,2024-06-23 13:36:30,14.98331687,0.0003208,70.0003,278.2879,268.7467,91.3325,5.7202e-05,5.9e-06,0.0,0 STARLINK-5993,1 56449U 23064B   24175.56701623  .00000590  00000-0  57202-4 0  9996,2 56449  70.0003 278.2879 0003208 268.7467  91.3325 14.98331687 61758,6950.188,96.107,574.282,569.823,0.0
56449.0,STARLINK-5993,PAYLOAD,2024-06-23 16:48:46,14.98334242,0.0003188,70.0003,277.9514,268.7873,91.2921,8.5581e-05,9.28e-06,0.0,0 STARLINK-5993,1 56449U 23064B   24175.70053372  .00000928  00000-0  85581-4 0  9999,2 56449  70.0003 277.9514 0003188 268.7873  91.2921 14.98334242 62132,6950.18,96.107,574.26,569.829,0.0
56449.0,STARLINK-5993,PAYLOAD,2024-06-24 13:38:30,14.98336556,0.0003221,70.0004,275.7632,269.3009,90.7781,0.00014525,1.641e-05,0.0,0 STARLINK-5993,1 56449U 23064B   24176.56840933  .00001641  00000-0  14525-3 0  9993,2 56449  70.0004 275.7632 0003221 269.3009  90.7781 14.98336556 61908,6950.173,96.107,574.276,569.799,0.0
56449.0,STARLINK-5993,PAYLOAD,2024-06-24 16:50:46,14.98337655,0.0003187,70.0004,275.4264,269.8446,90.2348,0.00019793,2.27e-05,0.0,0 STARLINK-5993,1 56449U 23064B   24176.70192728  .00002270  00000-0  19793-3 0  9992,2 56449  70.0004 275.4264 0003187 269.8446  90.2348 14.98337655 62284,6950.169,96.107,574.249,569.819,0.0
56449.0,STARLINK-5993,PAYLOAD,2024-06-25 12:04:23,14.98332589,0.0002807,70.0013,273.4076,260.7006,99.3836,6.1995e-05,6.47e-06,0.0,0 STARLINK-5993,1 56449U 23064B   24177.50305166  .00000647  00000-0  61995-4 0  9991,2 56449  70.0013 273.4076 0002807 260.7006  99.3836 14.98332589 62400,6950.185,96.107,574.001,570.099,0.0
56449.0,STARLINK-5993,PAYLOAD,2024-06-25 13:40:31,14.98332299,0.0002597,70.0016,273.2368,261.7002,98.3862,-9.7674e-06,-2.09e-06,0.0,0 STARLINK-5993,1 56449U 23064B   24177.56981325 -.00000209  00000-0 -97674-5 0  9994,2 56449  70.0016 273.2368 0002597 261.7002  98.3862 14.98332299 62055,6950.186,96.107,573.856,570.246,0.0
56449.0,STARLINK-5993,PAYLOAD,2024-06-25 16:52:48,14.98328683,0.0002743,70.0016,272.9002,265.8031,94.2815,6.4821e-05,6.81e-06,0.0,0 STARLINK-5993,1 56449U 23064B   24177.70333396  .00000681  00000-0  64821-4 0  9998,2 56449  70.0016 272.9002 0002743 265.8031  94.2815 14.98328683 62073,6950.197,96.107,573.968,570.156,0.0
56449.0,STARLINK-5993,PAYLOAD,2024-06-26 10:30:16,14.98323221,0.0002986,70.0011,271.0514,261.5392,98.5429,0.00019781,2.268e-05,0.0,0 STARLINK-5993,1 56449U 23064B   24178.43769132  .00002268  00000-0  19781-3 0  9997,2 56449  70.0011 271.0514 0002986 261.5392  98.5429 14.98323221 62181,6950.214,96.107,574.154,570.004,0.0
56449.0,STARLINK-5993,PAYLOAD,2024-06-27 12:08:25,14.98331478,0.0003147,70.0004,268.3573,268.6236,91.4562,5.903e-05,6.11e-06,0.0,0 STARLINK-5993,1 56449U 23064B   24179.50584905  .00000611  00000-0  59030-4 0  9991,2 56449  70.0004 268.3573 0003147 268.6236  91.4562 14.98331478 62703,6950.188,96.107,574.241,569.866,0.0
56449.0,STARLINK-5993,PAYLOAD,2024-06-27 15:20:41,14.98331356,0.0003176,70.0004,268.0208,268.4125,91.667,5.1678e-05,5.24e-06,0.0,0 STARLINK-5993,1 56449U 23064B   24179.63936919  .00000524  00000-0  51678-4 0  9994,2 56449  70.0004 268.0208 0003176 268.4125  91.6670 14.98331356 62361,6950.189,96.107,574.261,569.846,0.0
56449.0,STARLINK-5993,PAYLOAD,2024-06-28 12:10:26,14.98334263,0.0003526,69.9993,265.8319,271.8073,88.2682,9.5374e-05,1.045e-05,0.0,0 STARLINK-5993,1 56449U 23064B   24180.50724673  .00001045  00000-0  95374-4 0  9994,2 56449  69.9993 265.8319 0003526 271.8073  88.2682 14.98334263 62851,6950.18,96.107,574.495,569.594,0.0
56449.0,STARLINK-5993,PAYLOAD,2024-06-28 13:46:34,14.98335791,0.0003395,69.9993,265.6625,270.2634,89.8136,0.00011044,1.225e-05,0.0,0 STARLINK-5993,1 56449U 23064B   24180.57400516  .00001225  00000-0  11044-3 0  9999,2 56449  69.9993 265.6625 0003395 270.2634  89.8136 14.98335791 62509,6950.175,96.107,574.4,569.68,0.0
56449.0,STARLINK-5993,PAYLOAD,2024-06-28 15:22:41,14.98338297,0.0003205,69.9996,265.4943,265.9134,94.1659,0.00014337,1.618e-05,0.0,0 STARLINK-5993,1 56449U 23064B   24180.64076253  .00001618  00000-0  14337-3 0  9998,2 56449  69.9996 265.4943 0003205 265.9134  94.1659 14.98338297 62513,6950.167,96.106,574.26,569.805,0.0
56449.0,STARLINK-5993,PAYLOAD,2024-06-29 12:12:26,14.98331893,0.0003438,69.9998,263.3061,272.9703,87.1063,0.00013032,1.462e-05,0.0,0 STARLINK-5993,1 56449U 23064B   24181.50864538  .00001462  00000-0  13032-3 0  9993,2 56449  69.9998 263.3061 0003438 272.9703  87.1063 14.98331893 63002,6950.187,96.107,574.442,569.663,0.0
56449.0,STARLINK-5993,PAYLOAD,2024-06-29 13:48:34,14.98333931,0.0003244,69.9998,263.1377,268.9771,91.1017,0.00011415,1.269e-05,0.0,0 STARLINK-5993,1 56449U 23064B   24181.57540425  .00001269  00000-0  11415-3 0  9994,2 56449  69.9998 263.1377 0003244 268.9771  91.1017 14.98333931 62654,6950.181,96.107,574.3,569.791,0.0
56449.0,STARLINK-5993,PAYLOAD,2024-06-29 15:24:42,14.98336268,0.0003272,69.9998,262.9694,269.4988,90.5796,0.0001036,1.144e-05,0.0,0 STARLINK-5993,1 56449U 23064B   24181.64216279  .00001144  00000-0  10360-3 0  9999,2 56449  69.9998 262.9694 0003272 269.4988  90.5796 14.98336268 62664,6950.174,96.107,574.313,569.764,0.0
56449.0,STARLINK-5993,PAYLOAD,2024-06-30 10:38:20,14.98321563,0.0003192,70.0,260.9494,271.6039,88.4755,-2.5702e-05,-4e-06,0.0,0 STARLINK-5993,1 56449U 23064B   24182.44329645 -.00000400  00000-0 -25702-4 0  9993,2 56449  70.0000 260.9494 0003192 271.6039  88.4755 14.98321563 63147,6950.219,96.108,574.302,569.865,0.0
56449.0,STARLINK-5993,PAYLOAD,2024-06-30 13:50:36,14.98321576,0.0003201,70.0001,260.6129,271.6251,88.4542,2.1506e-05,1.64e-06,0.0,0 STARLINK-5993,1 56449U 23064B   24182.57681557  .00000164  00000-0  21506-4 0  9993,2 56449  70.0001 260.6129 0003201 271.6251  88.4542 14.98321576 62807,6950.219,96.108,574.309,569.859,0.0
56449.0,STARLINK-5993,PAYLOAD,2024-06-30 15:26:44,14.9832098,0.0003243,70.0002,260.4445,273.0292,87.0495,5.574e-05,5.72e-06,0.0,0 STARLINK-5993,1 56449U 23064B   24182.64357548  .00000572  00000-0  55740-4 0  9991,2 56449  70.0002 260.4445 0003243 273.0292  87.0495 14.98320980 62815,6950.221,96.108,574.34,569.832,0.0
56449.0,STARLINK-5993,PAYLOAD,2024-07-01 12:16:29,14.98333862,0.0003064,70.0,258.2574,270.1366,89.9442,5.2494e-05,5.33e-06,0.0,0 STARLINK-5993,1 56449U 23064B   24183.51144701  .00000533  00000-0  52494-4 0  9993,2 56449  70.0000 258.2574 0003064 270.1366  89.9442 14.98333862 63303,6950.181,96.107,574.175,569.916,0.0
56449.0,STARLINK-5993,PAYLOAD,2024-07-01 13:52:36,14.98336111,0.0003185,69.9998,258.0905,263.4055,96.6741,7.7252e-05,8.29e-06,0.0,0 STARLINK-5993,1 56449U 23064B   24183.57820412  .00000829  00000-0  77252-4 0  9996,2 56449  69.9998 258.0905 0003185 263.4055  96.6741 14.98336111 62953,6950.174,96.107,574.253,569.825,0.0
